start=new Date('2023-06-14T00:00:00.000Z').valueOf();
sats=[{"RA_OF_ASC_NODE":"260.2227","CENTER_NAME":"EARTH","PERIAPSIS":"354.188","CLASSIFICATION_TYPE":"U","ARG_OF_PERICENTER":"279.7985","DECAY_DATE":null,"ELEMENT_SET_NO":"999","SITE":"AFETR","TLE_LINE2":"2 56529  42.9983 260.2227 0001286 279.7985  80.2737 15.71345110  6011","ECCENTRICITY":"0.00012860","OBJECT_TYPE":"PAYLOAD","REV_AT_EPOCH":"601","RCS_SIZE":"LARGE","MEAN_ELEMENT_THEORY":"SGP4","INCLINATION":"42.9983","MEAN_MOTION_DOT":"-0.00001197","GP_ID":"233876917","SEMIMAJOR_AXIS":"6733.189","MEAN_MOTION":"15.71345110","OBJECT_ID":"2023-065AC","EPHEMERIS_TYPE":"0","FILE":"3932371","PERIOD":"91.641","REF_FRAME":"TEME","OBJECT_NAME":"STARLINK-6307","TLE_LINE1":"1 56529U 23065AC  23164.71780441 -.00001197  00000-0 -56862-5 0  9993","MEAN_ANOMALY":"80.2737","COUNTRY_CODE":"US","NORAD_CAT_ID":"56529","EPOCH":"2023-06-13T17:13:38.301024","BSTAR":"-0.00000568620000","LAUNCH_DATE":"2023-05-14","MEAN_MOTION_DDOT":"0.0000000000000","APOAPSIS":"355.920","TIME_SYSTEM":"UTC"},{"FILE":"3932371","PERIOD":"91.641","REF_FRAME":"TEME","EPHEMERIS_TYPE":"0","SEMIMAJOR_AXIS":"6733.195","OBJECT_ID":"2023-065AD","MEAN_MOTION":"15.71343020","APOAPSIS":"356.268","TIME_SYSTEM":"UTC","LAUNCH_DATE":"2023-05-14","MEAN_MOTION_DDOT":"0.0000000000000","NORAD_CAT_ID":"56530","COUNTRY_CODE":"US","BSTAR":"-0.00000720280000","EPOCH":"2023-06-13T17:14:05.522208","TLE_LINE1":"1 56530U 23065AD  23164.71811947 -.00001396  00000-0 -72028-5 0  9994","MEAN_ANOMALY":"107.1389","OBJECT_NAME":"STARLINK-6318","CENTER_NAME":"EARTH","RA_OF_ASC_NODE":"260.2239","INCLINATION":"42.9982","MEAN_ELEMENT_THEORY":"SGP4","MEAN_MOTION_DOT":"-0.00001396","GP_ID":"233877048","OBJECT_TYPE":"PAYLOAD","RCS_SIZE":"LARGE","REV_AT_EPOCH":"601","SITE":"AFETR","TLE_LINE2":"2 56530  42.9982 260.2239 0001795 252.9282 107.1389 15.71343020  6013","ECCENTRICITY":"0.00017950","ARG_OF_PERICENTER":"252.9282","PERIAPSIS":"353.851","CLASSIFICATION_TYPE":"U","ELEMENT_SET_NO":"999","DECAY_DATE":null},{"APOAPSIS":"356.076","TIME_SYSTEM":"UTC","MEAN_MOTION_DDOT":"0.0000000000000","LAUNCH_DATE":"2023-05-14","BSTAR":"0.00000049239000","EPOCH":"2023-06-13T17:13:29.550432","NORAD_CAT_ID":"56531","COUNTRY_CODE":"US","OBJECT_NAME":"STARLINK-6280","TLE_LINE1":"1 56531U 23065AE  23164.71770313 -.00000387  00000-0  49239-6 0  9993","MEAN_ANOMALY":"99.5037","PERIOD":"91.641","REF_FRAME":"TEME","FILE":"3932371","EPHEMERIS_TYPE":"0","SEMIMAJOR_AXIS":"6733.194","OBJECT_ID":"2023-065AE","MEAN_MOTION":"15.71343260","MEAN_MOTION_DOT":"-0.00000387","GP_ID":"233876856","MEAN_ELEMENT_THEORY":"SGP4","INCLINATION":"42.9995","REV_AT_EPOCH":"601","RCS_SIZE":"LARGE","OBJECT_TYPE":"PAYLOAD","ECCENTRICITY":"0.00015100","SITE":"AFETR","TLE_LINE2":"2 56531  42.9995 260.2219 0001510 260.5660  99.5037 15.71343260  6016","ELEMENT_SET_NO":"999","DECAY_DATE":null,"PERIAPSIS":"354.042","ARG_OF_PERICENTER":"260.5660","CLASSIFICATION_TYPE":"U","CENTER_NAME":"EARTH","RA_OF_ASC_NODE":"260.2219"},{"SEMIMAJOR_AXIS":"6733.191","MEAN_MOTION":"15.71344448","OBJECT_ID":"2023-065AF","EPHEMERIS_TYPE":"0","PERIOD":"91.641","REF_FRAME":"TEME","FILE":"3932371","TLE_LINE1":"1 56532U 23065AF  23164.71801473 -.00001233  00000-0 -59630-5 0  9993","MEAN_ANOMALY":"99.3761","OBJECT_NAME":"STARLINK-6319","BSTAR":"-0.00000596300000","EPOCH":"2023-06-13T17:13:56.472672","COUNTRY_CODE":"US","NORAD_CAT_ID":"56532","MEAN_MOTION_DDOT":"0.0000000000000","LAUNCH_DATE":"2023-05-14","APOAPSIS":"356.136","TIME_SYSTEM":"UTC","RA_OF_ASC_NODE":"260.2239","CENTER_NAME":"EARTH","DECAY_DATE":null,"ELEMENT_SET_NO":"999","PERIAPSIS":"353.976","CLASSIFICATION_TYPE":"U","ARG_OF_PERICENTER":"260.6926","ECCENTRICITY":"0.00016040","SITE":"AFETR","TLE_LINE2":"2 56532  42.9979 260.2239 0001604 260.6926  99.3761 15.71344448  6012","REV_AT_EPOCH":"601","RCS_SIZE":"LARGE","OBJECT_TYPE":"PAYLOAD","GP_ID":"233876736","MEAN_MOTION_DOT":"-0.00001233","INCLINATION":"42.9979","MEAN_ELEMENT_THEORY":"SGP4"},{"EPOCH":"2023-06-13T15:41:47.731488","BSTAR":"0.00002372300000","NORAD_CAT_ID":"56533","COUNTRY_CODE":"US","MEAN_ANOMALY":"108.6024","TLE_LINE1":"1 56533U 23065AG  23164.65402467  .00002660  00000-0  23723-4 0  9993","OBJECT_NAME":"STARLINK-6310","APOAPSIS":"356.093","TIME_SYSTEM":"UTC","MEAN_MOTION_DDOT":"0.0000000000000","LAUNCH_DATE":"2023-05-14","SEMIMAJOR_AXIS":"6733.147","MEAN_MOTION":"15.71359716","OBJECT_ID":"2023-065AG","PERIOD":"91.640","REF_FRAME":"TEME","FILE":"3932371","EPHEMERIS_TYPE":"0","ECCENTRICITY":"0.00016050","SITE":"AFETR","TLE_LINE2":"2 56533  42.9978 260.6037 0001605 251.4670 108.6024 15.71359716  6006","ELEMENT_SET_NO":"999","DECAY_DATE":null,"ARG_OF_PERICENTER":"251.4670","PERIAPSIS":"353.931","CLASSIFICATION_TYPE":"U","MEAN_MOTION_DOT":"0.00002660","GP_ID":"233877167","MEAN_ELEMENT_THEORY":"SGP4","INCLINATION":"42.9978","REV_AT_EPOCH":"600","RCS_SIZE":"LARGE","OBJECT_TYPE":"PAYLOAD","RA_OF_ASC_NODE":"260.6037","CENTER_NAME":"EARTH"},{"EPHEMERIS_TYPE":"0","PERIOD":"91.641","REF_FRAME":"TEME","FILE":"3932371","OBJECT_ID":"2023-065AH","MEAN_MOTION":"15.71349387","SEMIMAJOR_AXIS":"6733.177","MEAN_MOTION_DDOT":"0.0000000000000","LAUNCH_DATE":"2023-05-14","TIME_SYSTEM":"UTC","APOAPSIS":"356.067","TLE_LINE1":"1 56534U 23065AH  23164.71790867 -.00000080  00000-0  28360-5 0  9993","OBJECT_NAME":"STARLINK-6308","MEAN_ANOMALY":"89.7529","BSTAR":"0.00000283600000","EPOCH":"2023-06-13T17:13:47.309088","COUNTRY_CODE":"US","NORAD_CAT_ID":"56534","CENTER_NAME":"EARTH","RA_OF_ASC_NODE":"260.2238","RCS_SIZE":"LARGE","REV_AT_EPOCH":"601","OBJECT_TYPE":"PAYLOAD","GP_ID":"233876798","MEAN_MOTION_DOT":"-0.00000080","INCLINATION":"42.9986","MEAN_ELEMENT_THEORY":"SGP4","DECAY_DATE":null,"ELEMENT_SET_NO":"999","ARG_OF_PERICENTER":"270.3164","PERIAPSIS":"354.016","CLASSIFICATION_TYPE":"U","ECCENTRICITY":"0.00015230","TLE_LINE2":"2 56534  42.9986 260.2238 0001523 270.3164  89.7529 15.71349387  6015","SITE":"AFETR"},{"SEMIMAJOR_AXIS":"6807.659","MEAN_MOTION":"15.45632033","OBJECT_ID":"2023-065AJ","EPHEMERIS_TYPE":"0","FILE":"3932371","REF_FRAME":"TEME","PERIOD":"93.166","OBJECT_NAME":"STARLINK-6309","TLE_LINE1":"1 56535U 23065AJ  23164.91667824 -.00962242  00000-0 -21312-1 0  9996","MEAN_ANOMALY":"163.7182","NORAD_CAT_ID":"56535","COUNTRY_CODE":"US","EPOCH":"2023-06-13T22:00:00.999936","BSTAR":"-0.02131200000000","LAUNCH_DATE":"2023-05-14","MEAN_MOTION_DDOT":"0.0000000000000","APOAPSIS":"430.501","TIME_SYSTEM":"UTC","RA_OF_ASC_NODE":"260.7036","CENTER_NAME":"EARTH","CLASSIFICATION_TYPE":"U","PERIAPSIS":"428.547","ARG_OF_PERICENTER":"280.5086","DECAY_DATE":null,"ELEMENT_SET_NO":"999","SITE":"AFETR","TLE_LINE2":"2 56535  42.9982 260.7036 0001435 280.5086 163.7182 15.45632033  1300","ECCENTRICITY":"0.00014350","OBJECT_TYPE":"PAYLOAD","REV_AT_EPOCH":"130","RCS_SIZE":"LARGE","INCLINATION":"42.9982","MEAN_ELEMENT_THEORY":"SGP4","MEAN_MOTION_DOT":"-0.00962242","GP_ID":"233877107"},{"RA_OF_ASC_NODE":"260.7082","CENTER_NAME":"EARTH","ECCENTRICITY":"0.00014120","SITE":"AFETR","TLE_LINE2":"2 56536  42.9983 260.7082 0001412 277.3400 164.4295 15.45379250  1304","ELEMENT_SET_NO":"999","DECAY_DATE":null,"PERIAPSIS":"429.305","ARG_OF_PERICENTER":"277.3400","CLASSIFICATION_TYPE":"U","MEAN_MOTION_DOT":"-0.00963630","GP_ID":"233876987","INCLINATION":"42.9983","MEAN_ELEMENT_THEORY":"SGP4","RCS_SIZE":"LARGE","REV_AT_EPOCH":"130","OBJECT_TYPE":"PAYLOAD","SEMIMAJOR_AXIS":"6808.401","MEAN_MOTION":"15.45379250","OBJECT_ID":"2023-065AK","REF_FRAME":"TEME","PERIOD":"93.181","FILE":"3932371","EPHEMERIS_TYPE":"0","BSTAR":"-0.02153300000000","EPOCH":"2023-06-13T22:00:00.999936","NORAD_CAT_ID":"56536","COUNTRY_CODE":"US","TLE_LINE1":"1 56536U 23065AK  23164.91667824 -.00963630  00000-0 -21533-1 0  9994","MEAN_ANOMALY":"164.4295","OBJECT_NAME":"STARLINK-6312","APOAPSIS":"431.227","TIME_SYSTEM":"UTC","MEAN_MOTION_DDOT":"0.0000000000000","LAUNCH_DATE":"2023-05-14"},{"MEAN_MOTION_DOT":"-0.00963335","GP_ID":"233876918","INCLINATION":"42.9981","MEAN_ELEMENT_THEORY":"SGP4","REV_AT_EPOCH":"130","RCS_SIZE":"LARGE","OBJECT_TYPE":"PAYLOAD","ECCENTRICITY":"0.00014680","TLE_LINE2":"2 56537  42.9981 260.6985 0001468 276.4983 169.6477 15.45812936  1303","SITE":"AFETR","ELEMENT_SET_NO":"999","DECAY_DATE":null,"ARG_OF_PERICENTER":"276.4983","PERIAPSIS":"427.993","CLASSIFICATION_TYPE":"U","CENTER_NAME":"EARTH","RA_OF_ASC_NODE":"260.6985","TIME_SYSTEM":"UTC","APOAPSIS":"429.992","MEAN_MOTION_DDOT":"0.0000000000000","LAUNCH_DATE":"2023-05-14","BSTAR":"-0.02120500000000","EPOCH":"2023-06-13T22:00:00.999936","COUNTRY_CODE":"US","NORAD_CAT_ID":"56537","TLE_LINE1":"1 56537U 23065AL  23164.91667824 -.00963335  00000-0 -21205-1 0  9993","MEAN_ANOMALY":"169.6477","OBJECT_NAME":"STARLINK-6311","REF_FRAME":"TEME","PERIOD":"93.155","FILE":"3932371","EPHEMERIS_TYPE":"0","OBJECT_ID":"2023-065AL","MEAN_MOTION":"15.45812936","SEMIMAJOR_AXIS":"6807.127"},{"RA_OF_ASC_NODE":"260.2191","CENTER_NAME":"EARTH","SITE":"AFETR","TLE_LINE2":"2 56538  42.9992 260.2191 0001667 258.8279 101.2402 15.71343458  6014","ECCENTRICITY":"0.00016670","PERIAPSIS":"353.936","CLASSIFICATION_TYPE":"U","ARG_OF_PERICENTER":"258.8279","DECAY_DATE":null,"ELEMENT_SET_NO":"999","MEAN_ELEMENT_THEORY":"SGP4","INCLINATION":"42.9992","MEAN_MOTION_DOT":"-0.00001239","GP_ID":"233877049","OBJECT_TYPE":"PAYLOAD","REV_AT_EPOCH":"601","RCS_SIZE":"LARGE","SEMIMAJOR_AXIS":"6733.193","MEAN_MOTION":"15.71343458","OBJECT_ID":"2023-065AM","FILE":"3932371","PERIOD":"91.641","REF_FRAME":"TEME","EPHEMERIS_TYPE":"0","NORAD_CAT_ID":"56538","COUNTRY_CODE":"US","EPOCH":"2023-06-13T17:13:11.380512","BSTAR":"-0.00000600680000","TLE_LINE1":"1 56538U 23065AM  23164.71749283 -.00001239  00000-0 -60068-5 0  9992","MEAN_ANOMALY":"101.2402","OBJECT_NAME":"STARLINK-6314","APOAPSIS":"356.181","TIME_SYSTEM":"UTC","LAUNCH_DATE":"2023-05-14","MEAN_MOTION_DDOT":"0.0000000000000"}];
